{
    "links": {
        "self": "http://www.neowsapp.com/rest/v1/neo/54017157?api_key=iIulBulltgU6a56xZRHN4H3l9WmuAYTsLGpBGhQ2"
    },
    "id": "54017157",
    "neo_reference_id": "54017157",
    "name": "(2020 KM2)",
    "designation": "2020 KM2",
    "nasa_jpl_url": "http://ssd.jpl.nasa.gov/sbdb.cgi?sstr=54017157",
    "absolute_magnitude_h": 23.598,
    "estimated_diameter": {
        "kilometers": {
            "estimated_diameter_min": 0.0506938151,
            "estimated_diameter_max": 0.1133548166
        },
        "meters": {
            "estimated_diameter_min": 50.6938151174,
            "estimated_diameter_max": 113.3548166413
        },
        "miles": {
            "estimated_diameter_min": 0.0314996666,
            "estimated_diameter_max": 0.0704353958
        },
        "feet": {
            "estimated_diameter_min": 166.3182963897,
            "estimated_diameter_max": 371.8990166294
        }
    },
    "is_potentially_hazardous_asteroid": false,
    "close_approach_data": [
        {
            "close_approach_date": "2020-04-12",
            "close_approach_date_full": "2020-Apr-12 17:01",
            "epoch_date_close_approach": 1586710860000,
            "relative_velocity": {
                "kilometers_per_second": "8.4342528481",
                "kilometers_per_hour": "30363.3102530744",
                "miles_per_hour": "18866.5801958617"
            },
            "miss_distance": {
                "astronomical": "0.1107140189",
                "lunar": "43.0677533521",
                "kilometers": "16562581.406579743",
                "miles": "10291510.8623487334"
            },
            "orbiting_body": "Earth"
        }
    ],
    "orbital_data": {
        "orbit_id": "3",
        "orbit_determination_date": "2020-05-27 07:01:04",
        "first_observation_date": "2020-05-17",
        "last_observation_date": "2020-05-26",
        "data_arc_in_days": 9,
        "observations_used": 26,
        "orbit_uncertainty": "8",
        "minimum_orbit_intersection": ".0804351",
        "jupiter_tisserand_invariant": "3.251",
        "epoch_osculation": "2458990.5",
        "eccentricity": ".5849589696875209",
        "semi_major_axis": "2.418735994901168",
        "inclination": "6.036752235723807",
        "ascending_node_longitude": "119.8299450751971",
        "orbital_period": "1373.982269461259",
        "perihelion_distance": "1.00387467937766",
        "perihelion_argument": "63.0809430065531",
        "aphelion_distance": "3.833597310424676",
        "perihelion_time": "2458936.910555240627",
        "mean_anomaly": "14.04108374771007",
        "mean_motion": ".26201211471321",
        "equinox": "J2000",
        "orbit_class": {
            "orbit_class_type": "APO",
            "orbit_class_description": "Near-Earth asteroid orbits which cross the Earth’s orbit similar to that of 1862 Apollo",
            "orbit_class_range": "a (semi-major axis) > 1.0 AU; q (perihelion) < 1.017 AU"
        }
    },
    "is_sentry_object": false
}